[{"OBJECT_NAME":"SAOCOM 1A","OBJECT_ID":"2018-076A","EPOCH":"2026-03-28T14:18:10.454112","MEAN_MOTION":14.82158395,"ECCENTRICITY":0.00014307,"INCLINATION":97.8907,"RA_OF_ASC_NODE":275.5017,"ARG_OF_PERICENTER":85.9232,"MEAN_ANOMALY":274.2145,"EPHEMERIS_TYPE":0,"CLASSIFICATION_TYPE":"U","NORAD_CAT_ID":43641,"ELEMENT_SET_NO":999,"REV_AT_EPOCH":40416,"BSTAR":1.8733888e-5,"MEAN_MOTION_DOT":9.7e-7,"MEAN_MOTION_DDOT":0},{"OBJECT_NAME":"H-2A R/B","OBJECT_ID":"2018-084L","EPOCH":"2026-03-28T13:18:21.955392","MEAN_MOTION":15.42134956,"ECCENTRICITY":0.00237811,"INCLINATION":98.8711,"RA_OF_ASC_NODE":308.9843,"ARG_OF_PERICENTER":319.554,"MEAN_ANOMALY":40.3934,"EPHEMERIS_TYPE":0,"CLASSIFICATION_TYPE":"U","NORAD_CAT_ID":43682,"ELEMENT_SET_NO":999,"REV_AT_EPOCH":40868,"BSTAR":0.00053602278,"MEAN_MOTION_DOT":0.00023113,"MEAN_MOTION_DDOT":0},{"OBJECT_NAME":"SAOCOM 1B","OBJECT_ID":"2020-059A","EPOCH":"2026-03-28T13:25:56.320032","MEAN_MOTION":14.82157134,"ECCENTRICITY":0.00015395,"INCLINATION":97.8908,"RA_OF_ASC_NODE":274.5639,"ARG_OF_PERICENTER":87.6326,"MEAN_ANOMALY":272.5063,"EPHEMERIS_TYPE":0,"CLASSIFICATION_TYPE":"U","NORAD_CAT_ID":46265,"ELEMENT_SET_NO":999,"REV_AT_EPOCH":30154,"BSTAR":9.5254415e-5,"MEAN_MOTION_DOT":7.06e-6,"MEAN_MOTION_DDOT":0},{"OBJECT_NAME":"CSS (TIANHE)","OBJECT_ID":"2021-035A","EPOCH":"2026-03-28T09:29:17.689632","MEAN_MOTION":15.61580461,"ECCENTRICITY":0.00040582,"INCLINATION":41.4669,"RA_OF_ASC_NODE":94.2614,"ARG_OF_PERICENTER":45.376,"MEAN_ANOMALY":314.741,"EPHEMERIS_TYPE":0,"CLASSIFICATION_TYPE":"U","NORAD_CAT_ID":48274,"ELEMENT_SET_NO":999,"REV_AT_EPOCH":28053,"BSTAR":0.00020487581,"MEAN_MOTION_DOT":0.00017812,"MEAN_MOTION_DDOT":0},{"OBJECT_NAME":"COSMOS 2550","OBJECT_ID":"2021-056A","EPOCH":"2026-03-28T11:49:31.757952","MEAN_MOTION":15.33828274,"ECCENTRICITY":0.000844,"INCLINATION":67.1421,"RA_OF_ASC_NODE":344.0047,"ARG_OF_PERICENTER":269.5686,"MEAN_ANOMALY":90.4502,"EPHEMERIS_TYPE":0,"CLASSIFICATION_TYPE":"U","NORAD_CAT_ID":48865,"ELEMENT_SET_NO":999,"REV_AT_EPOCH":26634,"BSTAR":1.89685e-7,"MEAN_MOTION_DOT":-1.86e-6,"MEAN_MOTION_DDOT":0},{"OBJECT_NAME":"CZ-2C R/B","OBJECT_ID":"2022-058K","EPOCH":"2026-03-28T14:22:13.926720","MEAN_MOTION":15.55613526,"ECCENTRICITY":0.00415005,"INCLINATION":50.1873,"RA_OF_ASC_NODE":220.9188,"ARG_OF_PERICENTER":281.9247,"MEAN_ANOMALY":77.7073,"EPHEMERIS_TYPE":0,"CLASSIFICATION_TYPE":"U","NORAD_CAT_ID":52794,"ELEMENT_SET_NO":999,"REV_AT_EPOCH":21307,"BSTAR":0.00061128373,"MEAN_MOTION_DOT":0.00044205,"MEAN_MOTION_DDOT":0},{"OBJECT_NAME":"CZ-2C R/B","OBJECT_ID":"2022-132E","EPOCH":"2026-03-28T13:57:49.395744","MEAN_MOTION":15.63619581,"ECCENTRICITY":0.00177008,"INCLINATION":97.296,"RA_OF_ASC_NODE":91.4974,"ARG_OF_PERICENTER":29.7061,"MEAN_ANOMALY":330.5199,"EPHEMERIS_TYPE":0,"CLASSIFICATION_TYPE":"U","NORAD_CAT_ID":54039,"ELEMENT_SET_NO":999,"REV_AT_EPOCH":19332,"BSTAR":0.00052079174,"MEAN_MOTION_DOT":0.00048831,"MEAN_MOTION_DDOT":0},{"OBJECT_NAME":"GSLV R/B","OBJECT_ID":"2022-138AN","EPOCH":"2026-03-28T10:33:01.530720","MEAN_MOTION":14.9689141,"ECCENTRICITY":0.00240474,"INCLINATION":87.3863,"RA_OF_ASC_NODE":160.0857,"ARG_OF_PERICENTER":84.9694,"MEAN_ANOMALY":275.4282,"EPHEMERIS_TYPE":0,"CLASSIFICATION_TYPE":"U","NORAD_CAT_ID":54149,"ELEMENT_SET_NO":999,"REV_AT_EPOCH":18673,"BSTAR":0.00020975123,"MEAN_MOTION_DOT":2.448e-5,"MEAN_MOTION_DDOT":0},{"OBJECT_NAME":"XRISM","OBJECT_ID":"2023-137A","EPOCH":"2026-03-28T14:12:21.210624","MEAN_MOTION":15.1171369,"ECCENTRICITY":0.0007952,"INCLINATION":31.0016,"RA_OF_ASC_NODE":161.3818,"ARG_OF_PERICENTER":229.4111,"MEAN_ANOMALY":130.5836,"EPHEMERIS_TYPE":0,"CLASSIFICATION_TYPE":"U","NORAD_CAT_ID":57800,"ELEMENT_SET_NO":999,"REV_AT_EPOCH":14065,"BSTAR":0.00035792227,"MEAN_MOTION_DOT":6.351e-5,"MEAN_MOTION_DDOT":0},{"OBJECT_NAME":"ACS3","OBJECT_ID":"2024-077B","EPOCH":"2026-03-28T13:45:19.150848","MEAN_MOTION":13.90460123,"ECCENTRICITY":0.00724612,"INCLINATION":97.1966,"RA_OF_ASC_NODE":24.4398,"ARG_OF_PERICENTER":33.5084,"MEAN_ANOMALY":327.0633,"EPHEMERIS_TYPE":0,"CLASSIFICATION_TYPE":"U","NORAD_CAT_ID":59588,"ELEMENT_SET_NO":999,"REV_AT_EPOCH":9682,"BSTAR":0.018062015,"MEAN_MOTION_DOT":0.00022962,"MEAN_MOTION_DDOT":0},{"OBJECT_NAME":"SZ-21 MODULE","OBJECT_ID":"2025-246C","EPOCH":"2026-03-28T06:35:15.338976","MEAN_MOTION":15.69967006,"ECCENTRICITY":0.0001568,"INCLINATION":41.4743,"RA_OF_ASC_NODE":88.8326,"ARG_OF_PERICENTER":210.3682,"MEAN_ANOMALY":149.7069,"EPHEMERIS_TYPE":0,"CLASSIFICATION_TYPE":"U","NORAD_CAT_ID":66515,"ELEMENT_SET_NO":999,"REV_AT_EPOCH":2099,"BSTAR":0.00034891,"MEAN_MOTION_DOT":0.00043062,"MEAN_MOTION_DDOT":0}]
